HIMAWARI-8              
1 40267U 14060A   23323.89077288 -.00000269  00000+0  00000+0 0  9998
2 40267   0.0051 137.9557 0000366 118.0377 264.0257  1.00272225 33335
